CCSDS_OMM_VERS,COMMENT,CREATION_DATE,ORIGINATOR,OBJECT_NAME,OBJECT_ID,CENTER_NAME,REF_FRAME,TIME_SYSTEM,MEAN_ELEMENT_THEORY,EPOCH,MEAN_MOTION,ECCENTRICITY,INCLINATION,RA_OF_ASC_NODE,ARG_OF_PERICENTER,MEAN_ANOMALY,EPHEMERIS_TYPE,CLASSIFICATION_TYPE,NORAD_CAT_ID,ELEMENT_SET_NO,REV_AT_EPOCH,BSTAR,MEAN_MOTION_DOT,MEAN_MOTION_DDOT,SEMIMAJOR_AXIS,PERIOD,APOAPSIS,PERIAPSIS,OBJECT_TYPE,RCS_SIZE,COUNTRY_CODE,LAUNCH_DATE,SITE,DECAY_DATE,FILE,GP_ID,TLE_LINE0,TLE_LINE1,TLE_LINE2
"2.0","GENERATED VIA SPACE-TRACK.ORG API","2019-07-04T06:40:16","18 SPCS","AEOLUS","2018-066A","EARTH","TEME","UTC","SGP4","2019-07-04T04:33:08.410752","15.86911285","0.00042340","96.7187","191.7927","68.5007","353.0882","0","U","43600","999","4998","0.00008516300000","0.00021665","0.0000000000000","6689.085","90.742","313.782","308.118","PAYLOAD","LARGE","ESA","2018-08-22","FRGUI","","2506177","134500573","0 AEOLUS","1 43600U 18066A   19185.18968068  .00021665  00000-0  85163-4 0  9991","2 43600  96.7187 191.7927 0004234  68.5007 353.0882 15.86911285 49983"
"2.0","GENERATED VIA SPACE-TRACK.ORG API","2019-07-04T14:50:15","18 SPCS","AEOLUS","2018-066A","EARTH","TEME","UTC","SGP4","2019-07-04T12:30:51.044832","15.86929099","0.00043030","96.7186","192.1194","66.9143","88.5993","0","U","43600","999","5003","0.00008881300000","0.00022623","0.0000000000000","6689.035","90.741","313.778","308.022","PAYLOAD","LARGE","ESA","2018-08-22","FRGUI","","2506491","134507745","0 AEOLUS","1 43600U 18066A   19185.52142413  .00022623  00000-0  88813-4 0  9997","2 43600  96.7186 192.1194 0004303  66.9143  88.5993 15.86929099 50036"
"2.0","GENERATED VIA SPACE-TRACK.ORG API","2019-07-04T22:20:17","18 SPCS","OBJECT AC","2019-029AC","EARTH","TEME","UTC","SGP4","2019-07-04T14:36:53.349984","15.05572384","0.00028190","53.0019","345.7860","125.9311","234.1939","0","U","44261","999","641","0.00006894200000","0.00000725","0.0000000000000","6927.886","95.644","551.704","547.798","TBA","LARGE","US","2019-05-24","AFETR","","2506599","134528243","0 OBJECT AC","1 44261U 19029AC  19185.60895081  .00000725  00000-0  68942-4 0  9996","2 44261  53.0019 345.7860 0002819 125.9311 234.1939 15.05572384  6414"
"2.0","GENERATED VIA SPACE-TRACK.ORG API","2019-07-04T21:30:12","18 SPCS","AEOLUS","2018-066A","EARTH","TEME","UTC","SGP4","2019-07-04T19:46:28.723584","15.86729826","0.00042190","96.7176","192.4077","70.1266","12.3148","0","U","43600","999","5008","-0.00070381000000","-0.00174907","0.0000000000000","6689.595","90.752","314.282","308.638","PAYLOAD","LARGE","ESA","2018-08-22","FRGUI","","2506581","134527931","0 AEOLUS","1 43600U 18066A   19185.82394356 -.00174907  00000-0 -70381-3 0  9990","2 43600  96.7176 192.4077 0004219  70.1266  12.3148 15.86729826 50085"
"2.0","GENERATED VIA SPACE-TRACK.ORG API","2019-07-05T14:20:17","18 SPCS","OBJECT AC","2019-029AC","EARTH","TEME","UTC","SGP4","2019-07-05T11:19:39.028800","15.05480728","0.00030580","53.0021","341.9115","133.3356","226.7887","0","U","44261","999","654","0.00007030300000","0.00000742","0.0000000000000","6928.167","95.650","552.151","547.913","TBA","LARGE","US","2019-05-24","AFETR","","2507136","134558822","0 OBJECT AC","1 44261U 19029AC  19186.47197950  .00000742  00000-0  70303-4 0  9995","2 44261  53.0021 341.9115 0003058 133.3356 226.7887 15.05480728  6549"
"2.0","GENERATED VIA SPACE-TRACK.ORG API","2019-07-05T13:50:13","18 SPCS","AEOLUS","2018-066A","EARTH","TEME","UTC","SGP4","2019-07-05T12:44:14.191584","15.86701575","0.00036720","96.7168","193.1203","79.0273","77.8572","0","U","43600","999","5019","-0.00014104000000","-0.00035643","0.0000000000000","6689.674","90.754","313.996","309.083","PAYLOAD","LARGE","ESA","2018-08-22","FRGUI","","2507077","134557561","0 AEOLUS","1 43600U 18066A   19186.53071981 -.00035643  00000-0 -14104-3 0  9999","2 43600  96.7168 193.1203 0003672  79.0273  77.8572 15.86701575 50193"
"2.0","GENERATED VIA SPACE-TRACK.ORG API","2019-07-06T06:20:18","18 SPCS","OBJECT AC","2019-029AC","EARTH","TEME","UTC","SGP4","2019-07-05T19:17:38.575680","15.05465907","0.00026300","53.0015","340.4225","131.5610","228.5604","0","U","44261","999","659","0.00007068500000","0.00000747","0.0000000000000","6928.212","95.651","551.900","548.255","TBA","LARGE","US","2019-05-24","AFETR","","2507670","134608743","0 OBJECT AC","1 44261U 19029AC  19186.80391870  .00000747  00000-0  70685-4 0  9997","2 44261  53.0015 340.4225 0002630 131.5610 228.5604 15.05465907  6590"
"2.0","GENERATED VIA SPACE-TRACK.ORG API","2019-07-06T13:10:11","18 SPCS","AEOLUS","2018-066A","EARTH","TEME","UTC","SGP4","2019-07-06T12:48:08.307936","15.86697495","0.00038780","96.7228","194.1022","72.8490","47.8306","0","U","43600","999","5035","-0.00067428000000","-0.00167427","0.0000000000000","6689.686","90.754","314.145","308.957","PAYLOAD","LARGE","ESA","2018-08-22","FRGUI","","2507888","134613934","0 AEOLUS","1 43600U 18066A   19187.53342949 -.00167427  00000-0 -67428-3 0  9998","2 43600  96.7228 194.1022 0003878  72.8490  47.8306 15.86697495 50355"
"2.0","GENERATED VIA SPACE-TRACK.ORG API","2019-07-07T14:20:17","18 SPCS","OBJECT AC","2019-029AC","EARTH","TEME","UTC","SGP4","2019-07-07T09:31:59.899584","15.05468379","0.00025510","53.0015","333.2710","135.1164","225.0030","0","U","44261","999","683","0.00006148800000","0.00000614","0.0000000000000","6928.205","95.651","551.837","548.302","TBA","LARGE","US","2019-05-24","AFETR","","2508735","134670969","0 OBJECT AC","1 44261U 19029AC  19188.39722106  .00000614  00000-0  61488-4 0  9997","2 44261  53.0015 333.2710 0002551 135.1164 225.0030 15.05468379  6833"
"2.0","GENERATED VIA SPACE-TRACK.ORG API","2019-07-07T13:10:11","18 SPCS","AEOLUS","2018-066A","EARTH","TEME","UTC","SGP4","2019-07-07T13:00:32.296608","15.86775539","0.00038670","96.7228","195.0969","76.0597","42.2591","0","U","43600","999","5051","-0.00002522100000","-0.00006530","0.0000000000000","6689.466","90.750","313.918","308.745","PAYLOAD","LARGE","ESA","2018-08-22","FRGUI","","2508709","134670651","0 AEOLUS","1 43600U 18066A   19188.54204047 -.00006530  00000-0 -25221-4 0  9999","2 43600  96.7228 195.0969 0003867  76.0597  42.2591 15.86775539 50516"
"2.0","GENERATED VIA SPACE-TRACK.ORG API","2019-07-07T22:40:17","18 SPCS","AEOLUS","2018-066A","EARTH","TEME","UTC","SGP4","2019-07-07T18:47:08.475936","15.86797393","0.00037360","96.7204","195.3338","72.5728","339.7601","0","U","43600","999","5055","0.00006297000000","0.00015883","0.0000000000000","6689.405","90.748","313.769","308.771","PAYLOAD","LARGE","ESA","2018-08-22","FRGUI","","2509291","134720174","0 AEOLUS","1 43600U 18066A   19188.78273699  .00015883  00000-0  62970-4 0  9995","2 43600  96.7204 195.3338 0003736  72.5728 339.7601 15.86797393 50557"
"2.0","GENERATED VIA SPACE-TRACK.ORG API","2019-07-08T06:50:13","18 SPCS","AEOLUS","2018-066A","EARTH","TEME","UTC","SGP4","2019-07-08T02:18:18.247392","15.86814442","0.00038450","96.7198","195.6434","65.2575","335.6269","0","U","43600","999","5060","0.00007047300000","0.00017810","0.0000000000000","6689.357","90.747","313.794","308.650","PAYLOAD","LARGE","ESA","2018-08-22","FRGUI","","2509645","134764734","0 AEOLUS","1 43600U 18066A   19189.09604453  .00017810  00000-0  70473-4 0  9995","2 43600  96.7198 195.6434 0003845  65.2575 335.6269 15.86814442 50605"
"2.0","GENERATED VIA SPACE-TRACK.ORG API","2019-07-08T14:20:16","18 SPCS","OBJECT AC","2019-029AC","EARTH","TEME","UTC","SGP4","2019-07-08T09:25:55.905888","15.05505894","0.00025760","53.0015","328.8014","134.8648","225.2549","0","U","44261","999","698","0.00006162800000","0.00000617","0.0000000000000","6928.090","95.648","551.739","548.170","TBA","LARGE","US","2019-05-24","AFETR","","2509699","134765378","0 OBJECT AC","1 44261U 19029AC  19189.39300817  .00000617  00000-0  61628-4 0  9998","2 44261  53.0015 328.8014 0002576 134.8648 225.2549 15.05505894  6987"
"2.0","GENERATED VIA SPACE-TRACK.ORG API","2019-07-08T14:50:13","18 SPCS","AEOLUS","2018-066A","EARTH","TEME","UTC","SGP4","2019-07-08T11:51:02.043360","15.86831063","0.00037440","96.7204","196.0352","63.1846","88.1938","0","U","43600","999","5066","0.00007325600000","0.00018535","0.0000000000000","6689.310","90.746","313.680","308.671","PAYLOAD","LARGE","ESA","2018-08-22","FRGUI","","2509821","134768388","0 AEOLUS","1 43600U 18066A   19189.49377365  .00018535  00000-0  73256-4 0  9995","2 43600  96.7204 196.0352 0003744  63.1846  88.1938 15.86831063 50660"
"2.0","GENERATED VIA SPACE-TRACK.ORG API","2019-07-09T03:21:22","18 SPCS","OBJECT AC","2019-029AC","EARTH","TEME","UTC","SGP4","2019-07-08T15:48:18.879840","15.05506318","0.00024690","53.0013","327.6096","134.1352","225.9839","0","U","44261","999","608","0.00005961000000","0.00000587","0.0000000000000","6928.088","95.648","551.664","548.243","TBA","LARGE","US","2019-05-24","AFETR","","2510006","134810049","0 OBJECT AC","1 44261U 19029AC  19189.65855185 +.00000587 +00000-0 +59610-4 0  9994","2 44261 053.0013 327.6096 0002469 134.1352 225.9839 15.05506318006080"
"2.0","GENERATED VIA SPACE-TRACK.ORG API","2019-07-08T22:40:12","18 SPCS","AEOLUS","2018-066A","EARTH","TEME","UTC","SGP4","2019-07-08T17:30:00.035712","15.86836336","0.00037130","96.7208","196.2659","67.8568","347.2977","0","U","43600","999","5070","0.00007029400000","0.00017783","0.0000000000000","6689.296","90.746","313.644","308.677","PAYLOAD","LARGE","ESA","2018-08-22","FRGUI","","2509985","134791126","0 AEOLUS","1 43600U 18066A   19189.72916708  .00017783  00000-0  70294-4 0  9994","2 43600  96.7208 196.2659 0003713  67.8568 347.2977 15.86836336 50709"
